SL-14 R/B               
1 21423U 91042B   26059.16904314  .00000504  00000+0  60875-4 0  9996
2 21423  82.4907 229.1110 0015572 272.7643  87.1789 14.81817880851663
ERS-1                   
1 21574U 91050A   26059.03527318  .00000346  00000+0  12540-3 0  9992
2 21574  98.7888  77.0272 0031138 229.5978 130.2491 14.39440499814349
ARIANE 40 R/B           
1 21610U 91050F   26059.10919054  .00000307  00000+0  10438-3 0  9994
2 21610  98.2033 111.7044 0004382 101.9304 258.2378 14.42885382817613
INTERCOSMOS 25          
1 21819U 91086A   26059.16369402  .00001589  00000+0  30525-3 0  9998
2 21819  82.6068 315.7651 1487090 137.4548 235.1960 12.11968396495530
SL-8 R/B                
1 21876U 92008B   26059.13453933  .00000010  00000+0 -57360-5 0  9993
2 21876  82.9229 274.8879 0035076 159.4021 318.0527 13.75969889708103
SL-8 R/B                
1 21938U 92020B   26059.04059310  .00000066  00000+0  52741-4 0  9994
2 21938  82.9343 160.9235 0028089 326.7707 206.6626 13.75548162699801
USA 81                  
1 21949U 92023A   26059.15814328  .00000179  00000+0  59026-4 0  9997
2 21949  85.0103 136.9388 0002709  85.6704 274.4798 14.32364231 93428
COSMOS 2219             
1 22219U 92076A   26059.11282721  .00000362  00000+0  21455-3 0  9996
2 22219  71.0607  38.0870 0019461 219.8141 140.1554 14.14086465717028
SL-16 R/B               
1 22220U 92076B   26059.18744078  .00000249  00000+0  14776-3 0  9995
2 22220  70.9992 208.3883 0010785 113.7866  58.6462 14.16858547720482
COSMOS 2221             
1 22236U 92080A   26059.14058122  .00001798  00000+0  15719-3 0  9999
2 22236  82.5024 288.2290 0013210 220.9338 139.0893 14.96158090779361
SL-16 R/B               
1 22285U 92093B   26059.19903749 -.00000015  00000+0  16732-4 0  9995
2 22285  71.0233  24.1877 0006136 303.9526  56.1013 14.15449729711810
COSMOS 2228             
1 22286U 92094A   26059.09639934  .00002035  00000+0  17360-3 0  9998
2 22286  82.5145 246.4976 0017429 338.6990  21.3505 14.97134252774626
