CCSDS_OMM_VERS = 2.0
CREATION_DATE  = 
ORIGINATOR     = 

OBJECT_NAME    = SL-14 R/B
OBJECT_ID      = 1991-042B
CENTER_NAME    = EARTH
REF_FRAME      = TEME
TIME_SYSTEM    = UTC
MEAN_ELEMENT_THEORY = SGP/SGP4

EPOCH          = 2026-02-28T04:03:25.327296
MEAN_MOTION    = 14.81817880
ECCENTRICITY   = .0015572
INCLINATION    = 82.4907
RA_OF_ASC_NODE = 229.1110
ARG_OF_PERICENTER = 272.7643
MEAN_ANOMALY   = 87.1789

EPHEMERIS_TYPE = 0
CLASSIFICATION_TYPE = U
NORAD_CAT_ID   = 21423
ELEMENT_SET_NO = 999
REV_AT_EPOCH   = 85166
BSTAR          = .60875E-4
MEAN_MOTION_DOT = .504E-5
MEAN_MOTION_DDOT = 0

CCSDS_OMM_VERS = 2.0
CREATION_DATE  = 
ORIGINATOR     = 

OBJECT_NAME    = ERS-1
OBJECT_ID      = 1991-050A
CENTER_NAME    = EARTH
REF_FRAME      = TEME
TIME_SYSTEM    = UTC
MEAN_ELEMENT_THEORY = SGP/SGP4

EPOCH          = 2026-02-28T00:50:47.602752
MEAN_MOTION    = 14.39440499
ECCENTRICITY   = .0031138
INCLINATION    = 98.7888
RA_OF_ASC_NODE = 77.0272
ARG_OF_PERICENTER = 229.5978
MEAN_ANOMALY   = 130.2491

EPHEMERIS_TYPE = 0
CLASSIFICATION_TYPE = U
NORAD_CAT_ID   = 21574
ELEMENT_SET_NO = 999
REV_AT_EPOCH   = 81434
BSTAR          = .1254E-3
MEAN_MOTION_DOT = .346E-5
MEAN_MOTION_DDOT = 0

CCSDS_OMM_VERS = 2.0
CREATION_DATE  = 
ORIGINATOR     = 

OBJECT_NAME    = ARIANE 40 R/B
OBJECT_ID      = 1991-050F
CENTER_NAME    = EARTH
REF_FRAME      = TEME
TIME_SYSTEM    = UTC
MEAN_ELEMENT_THEORY = SGP/SGP4

EPOCH          = 2026-02-28T02:37:14.062656
MEAN_MOTION    = 14.42885382
ECCENTRICITY   = .0004382
INCLINATION    = 98.2033
RA_OF_ASC_NODE = 111.7044
ARG_OF_PERICENTER = 101.9304
MEAN_ANOMALY   = 258.2378

EPHEMERIS_TYPE = 0
CLASSIFICATION_TYPE = U
NORAD_CAT_ID   = 21610
ELEMENT_SET_NO = 999
REV_AT_EPOCH   = 81761
BSTAR          = .10438E-3
MEAN_MOTION_DOT = .307E-5
MEAN_MOTION_DDOT = 0

CCSDS_OMM_VERS = 2.0
CREATION_DATE  = 
ORIGINATOR     = 

OBJECT_NAME    = INTERCOSMOS 25
OBJECT_ID      = 1991-086A
CENTER_NAME    = EARTH
REF_FRAME      = TEME
TIME_SYSTEM    = UTC
MEAN_ELEMENT_THEORY = SGP/SGP4

EPOCH          = 2026-02-28T03:55:43.163328
MEAN_MOTION    = 12.11968396
ECCENTRICITY   = .148709
INCLINATION    = 82.6068
RA_OF_ASC_NODE = 315.7651
ARG_OF_PERICENTER = 137.4548
MEAN_ANOMALY   = 235.1960

EPHEMERIS_TYPE = 0
CLASSIFICATION_TYPE = U
NORAD_CAT_ID   = 21819
ELEMENT_SET_NO = 999
REV_AT_EPOCH   = 49553
BSTAR          = .30525E-3
MEAN_MOTION_DOT = .1589E-4
MEAN_MOTION_DDOT = 0

CCSDS_OMM_VERS = 2.0
CREATION_DATE  = 
ORIGINATOR     = 

OBJECT_NAME    = SL-8 R/B
OBJECT_ID      = 1992-008B
CENTER_NAME    = EARTH
REF_FRAME      = TEME
TIME_SYSTEM    = UTC
MEAN_ELEMENT_THEORY = SGP/SGP4

EPOCH          = 2026-02-28T03:13:44.198112
MEAN_MOTION    = 13.75969889
ECCENTRICITY   = .0035076
INCLINATION    = 82.9229
RA_OF_ASC_NODE = 274.8879
ARG_OF_PERICENTER = 159.4021
MEAN_ANOMALY   = 318.0527

EPHEMERIS_TYPE = 0
CLASSIFICATION_TYPE = U
NORAD_CAT_ID   = 21876
ELEMENT_SET_NO = 999
REV_AT_EPOCH   = 70810
BSTAR          = -.5736E-5
MEAN_MOTION_DOT = .1E-6
MEAN_MOTION_DDOT = 0

CCSDS_OMM_VERS = 2.0
CREATION_DATE  = 
ORIGINATOR     = 

OBJECT_NAME    = SL-8 R/B
OBJECT_ID      = 1992-020B
CENTER_NAME    = EARTH
REF_FRAME      = TEME
TIME_SYSTEM    = UTC
MEAN_ELEMENT_THEORY = SGP/SGP4

EPOCH          = 2026-02-28T00:58:27.243840
MEAN_MOTION    = 13.75548162
ECCENTRICITY   = .0028089
INCLINATION    = 82.9343
RA_OF_ASC_NODE = 160.9235
ARG_OF_PERICENTER = 326.7707
MEAN_ANOMALY   = 206.6626

EPHEMERIS_TYPE = 0
CLASSIFICATION_TYPE = U
NORAD_CAT_ID   = 21938
ELEMENT_SET_NO = 999
REV_AT_EPOCH   = 69980
BSTAR          = .52741E-4
MEAN_MOTION_DOT = .66E-6
MEAN_MOTION_DDOT = 0

CCSDS_OMM_VERS = 2.0
CREATION_DATE  = 
ORIGINATOR     = 

OBJECT_NAME    = USA 81
OBJECT_ID      = 1992-023A
CENTER_NAME    = EARTH
REF_FRAME      = TEME
TIME_SYSTEM    = UTC
MEAN_ELEMENT_THEORY = SGP/SGP4

EPOCH          = 2026-02-28T03:47:43.579392
MEAN_MOTION    = 14.32364231
ECCENTRICITY   = .0002709
INCLINATION    = 85.0103
RA_OF_ASC_NODE = 136.9388
ARG_OF_PERICENTER = 85.6704
MEAN_ANOMALY   = 274.4798

EPHEMERIS_TYPE = 0
CLASSIFICATION_TYPE = U
NORAD_CAT_ID   = 21949
ELEMENT_SET_NO = 999
REV_AT_EPOCH   = 9342
BSTAR          = .59026E-4
MEAN_MOTION_DOT = .179E-5
MEAN_MOTION_DDOT = 0

CCSDS_OMM_VERS = 2.0
CREATION_DATE  = 
ORIGINATOR     = 

OBJECT_NAME    = COSMOS 2219
OBJECT_ID      = 1992-076A
CENTER_NAME    = EARTH
REF_FRAME      = TEME
TIME_SYSTEM    = UTC
MEAN_ELEMENT_THEORY = SGP/SGP4

EPOCH          = 2026-02-28T02:42:28.270944
MEAN_MOTION    = 14.14086465
ECCENTRICITY   = .0019461
INCLINATION    = 71.0607
RA_OF_ASC_NODE = 38.0870
ARG_OF_PERICENTER = 219.8141
MEAN_ANOMALY   = 140.1554

EPHEMERIS_TYPE = 0
CLASSIFICATION_TYPE = U
NORAD_CAT_ID   = 22219
ELEMENT_SET_NO = 999
REV_AT_EPOCH   = 71702
BSTAR          = .21455E-3
MEAN_MOTION_DOT = .362E-5
MEAN_MOTION_DDOT = 0

CCSDS_OMM_VERS = 2.0
CREATION_DATE  = 
ORIGINATOR     = 

OBJECT_NAME    = SL-16 R/B
OBJECT_ID      = 1992-076B
CENTER_NAME    = EARTH
REF_FRAME      = TEME
TIME_SYSTEM    = UTC
MEAN_ELEMENT_THEORY = SGP/SGP4

EPOCH          = 2026-02-28T04:29:54.883392
MEAN_MOTION    = 14.16858547
ECCENTRICITY   = .0010785
INCLINATION    = 70.9992
RA_OF_ASC_NODE = 208.3883
ARG_OF_PERICENTER = 113.7866
MEAN_ANOMALY   = 58.6462

EPHEMERIS_TYPE = 0
CLASSIFICATION_TYPE = U
NORAD_CAT_ID   = 22220
ELEMENT_SET_NO = 999
REV_AT_EPOCH   = 72048
BSTAR          = .14776E-3
MEAN_MOTION_DOT = .249E-5
MEAN_MOTION_DDOT = 0

CCSDS_OMM_VERS = 2.0
CREATION_DATE  = 
ORIGINATOR     = 

OBJECT_NAME    = COSMOS 2221
OBJECT_ID      = 1992-080A
CENTER_NAME    = EARTH
REF_FRAME      = TEME
TIME_SYSTEM    = UTC
MEAN_ELEMENT_THEORY = SGP/SGP4

EPOCH          = 2026-02-28T03:22:26.217408
MEAN_MOTION    = 14.96158090
ECCENTRICITY   = .001321
INCLINATION    = 82.5024
RA_OF_ASC_NODE = 288.2290
ARG_OF_PERICENTER = 220.9338
MEAN_ANOMALY   = 139.0893

EPHEMERIS_TYPE = 0
CLASSIFICATION_TYPE = U
NORAD_CAT_ID   = 22236
ELEMENT_SET_NO = 999
REV_AT_EPOCH   = 77936
BSTAR          = .15719E-3
MEAN_MOTION_DOT = .1798E-4
MEAN_MOTION_DDOT = 0

CCSDS_OMM_VERS = 2.0
CREATION_DATE  = 
ORIGINATOR     = 

OBJECT_NAME    = SL-16 R/B
OBJECT_ID      = 1992-093B
CENTER_NAME    = EARTH
REF_FRAME      = TEME
TIME_SYSTEM    = UTC
MEAN_ELEMENT_THEORY = SGP/SGP4

EPOCH          = 2026-02-28T04:46:36.839136
MEAN_MOTION    = 14.15449729
ECCENTRICITY   = .0006136
INCLINATION    = 71.0233
RA_OF_ASC_NODE = 24.1877
ARG_OF_PERICENTER = 303.9526
MEAN_ANOMALY   = 56.1013

EPHEMERIS_TYPE = 0
CLASSIFICATION_TYPE = U
NORAD_CAT_ID   = 22285
ELEMENT_SET_NO = 999
REV_AT_EPOCH   = 71181
BSTAR          = .16732E-4
MEAN_MOTION_DOT = -.15E-6
MEAN_MOTION_DDOT = 0

CCSDS_OMM_VERS = 2.0
CREATION_DATE  = 
ORIGINATOR     = 

OBJECT_NAME    = COSMOS 2228
OBJECT_ID      = 1992-094A
CENTER_NAME    = EARTH
REF_FRAME      = TEME
TIME_SYSTEM    = UTC
MEAN_ELEMENT_THEORY = SGP/SGP4

EPOCH          = 2026-02-28T02:18:48.902976
MEAN_MOTION    = 14.97134252
ECCENTRICITY   = .0017429
INCLINATION    = 82.5145
RA_OF_ASC_NODE = 246.4976
ARG_OF_PERICENTER = 338.6990
MEAN_ANOMALY   = 21.3505

EPHEMERIS_TYPE = 0
CLASSIFICATION_TYPE = U
NORAD_CAT_ID   = 22286
ELEMENT_SET_NO = 999
REV_AT_EPOCH   = 77462
BSTAR          = .1736E-3
MEAN_MOTION_DOT = .2035E-4
MEAN_MOTION_DDOT = 0

